{"type": "FeatureCollection", "features": [ {"type": "Feature", "properties": {"norad_id": 31441, "name": "FENGYUN 1C DEB", "group": "fengyun-1c-debris", "lat": -26.039782102452754, "lon": -134.1040810262071, "alt_km": 586.0520719954984, "timestamp": "2025-12-22T22:44:21.257968+00:00", "meta": {"OBJECT_NAME": "FENGYUN 1C DEB", "OBJECT_ID": "1999-025BUD", "EPOCH": "2025-12-20T20:24:46.910016", "MEAN_MOTION": 14.75706647, "ECCENTRICITY": 0.01016008, "INCLINATION": 99.3109, "RA_OF_ASC_NODE": 218.8859, "ARG_OF_PERICENTER": 310.6714, "MEAN_ANOMALY": 48.5694, "EPHEMERIS_TYPE": 0, "CLASSIFICATION_TYPE": "U", "NORAD_CAT_ID": 31441, "ELEMENT_SET_NO": 999, "REV_AT_EPOCH": 64210, "BSTAR": 0.0031315146, "MEAN_MOTION_DOT": 0.00023297, "MEAN_MOTION_DDOT": 0}, "tle": {"line1": "1 31441U 99025BUD 25354.85054294  .00023297  00000+0  31315-2 0  9991", "line2": "2 31441  99.3109 218.8859 0101600 310.6714  48.5694 14.75706647642103"}}, "geometry": {"type": "Point", "coordinates": [-134.1040810262071, -26.039782102452754]}}, {"type": "Feature", "properties": {"norad_id": 31442, "name": "FENGYUN 1C DEB", "group": "fengyun-1c-debris", "lat": -59.270363382499674, "lon": -111.83604548034982, "alt_km": 797.0498216022761, "timestamp": "2025-12-22T22:44:21.257981+00:00", "meta": {"OBJECT_NAME": "FENGYUN 1C DEB", "OBJECT_ID": "1999-025BUE", "EPOCH": "2025-12-21T12:07:24.943584", "MEAN_MOTION": 14.33945698, "ECCENTRICITY": 0.0078669, "INCLINATION": 98.5303, "RA_OF_ASC_NODE": 81.3658, "ARG_OF_PERICENTER": 346.6775, "MEAN_ANOMALY": 13.2332, "EPHEMERIS_TYPE": 0, "CLASSIFICATION_TYPE": "U", "NORAD_CAT_ID": 31442, "ELEMENT_SET_NO": 999, "REV_AT_EPOCH": 97486, "BSTAR": 0.00027837552, "MEAN_MOTION_DOT": 7.6e-06, "MEAN_MOTION_DDOT": 0}, "tle": {"line1": "1 31442U 99025BUE 25355.50514981  .00000760  00000+0  27838-3 0  9995", "line2": "2 31442  98.5303  81.3658 0078669 346.6775  13.2332 14.33945698974869"}}, "geometry": {"type": "Point", "coordinates": [-111.83604548034982, -59.270363382499674]}}, {"type": "Feature", "properties": {"norad_id": 31443, "name": "FENGYUN 1C DEB", "group": "fengyun-1c-debris", "lat": 45.80913605027033, "lon": -73.03820269900181, "alt_km": 666.903376957197, "timestamp": "2025-12-22T22:44:21.257992+00:00", "meta": {"OBJECT_NAME": "FENGYUN 1C DEB", "OBJECT_ID": "1999-025BUF", "EPOCH": "2025-12-22T12:11:57.510528", "MEAN_MOTION": 14.4877707, "ECCENTRICITY": 0.01913588, "INCLINATION": 99.2113, "RA_OF_ASC_NODE": 96.8738, "ARG_OF_PERICENTER": 69.2188, "MEAN_ANOMALY": 292.9389, "EPHEMERIS_TYPE": 0, "CLASSIFICATION_TYPE": "U", "NORAD_CAT_ID": 31443, "ELEMENT_SET_NO": 999, "REV_AT_EPOCH": 67083, "BSTAR": 0.0011434447, "MEAN_MOTION_DOT": 5.391e-05, "MEAN_MOTION_DDOT": 0}, "tle": {"line1": "1 31443U 99025BUF 25356.50830452  .00005391  00000+0  11434-2 0  9990", "line2": "2 31443  99.2113  96.8738 0191358  69.2188 292.9389 14.48777070670835"}}, "geometry": {"type": "Point", "coordinates": [-73.03820269900181, 45.80913605027033]}}, {"type": "Feature", "properties": {"norad_id": 31444, "name": "FENGYUN 1C DEB", "group": "fengyun-1c-debris", "lat": 17.00972780097314, "lon": 122.69788103690901, "alt_km": 683.925380124123, "timestamp": "2025-12-22T22:44:21.258003+00:00", "meta": {"OBJECT_NAME": "FENGYUN 1C DEB", "OBJECT_ID": "1999-025BUG", "EPOCH": "2025-12-22T02:24:16.096320", "MEAN_MOTION": 14.70070692, "ECCENTRICITY": 0.00626396, "INCLINATION": 98.9296, "RA_OF_ASC_NODE": 299.0143, "ARG_OF_PERICENTER": 44.119, "MEAN_ANOMALY": 316.4986, "EPHEMERIS_TYPE": 0, "CLASSIFICATION_TYPE": "U", "NORAD_CAT_ID": 31444, "ELEMENT_SET_NO": 999, "REV_AT_EPOCH": 97626, "BSTAR": 0.0017329246, "MEAN_MOTION_DOT": 0.00010681, "MEAN_MOTION_DDOT": 0}, "tle": {"line1": "1 31444U 99025BUG 25356.10018630  .00010681  00000+0  17329-2 0  9990", "line2": "2 31444  98.9296 299.0143 0062639  44.1190 316.4986 14.70070692976267"}}, "geometry": {"type": "Point", "coordinates": [122.69788103690901, 17.00972780097314]}}, {"type": "Feature", "properties": {"norad_id": 31447, "name": "FENGYUN 1C DEB", "group": "fengyun-1c-debris", "lat": -45.41970516591901, "lon": 47.68656656463701, "alt_km": 656.1491443526702, "timestamp": "2025-12-22T22:44:21.258013+00:00", "meta": {"OBJECT_NAME": "FENGYUN 1C DEB", "OBJECT_ID": "1999-025BUK", "EPOCH": "2025-12-14T21:01:38.356896", "MEAN_MOTION": 14.2403744, "ECCENTRICITY": 0.02304397, "INCLINATION": 98.9919, "RA_OF_ASC_NODE": 30.1793, "ARG_OF_PERICENTER": 349.1545, "MEAN_ANOMALY": 10.471, "EPHEMERIS_TYPE": 0, "CLASSIFICATION_TYPE": "U", "NORAD_CAT_ID": 31447, "ELEMENT_SET_NO": 999, "REV_AT_EPOCH": 64882, "BSTAR": 0.00018562598, "MEAN_MOTION_DOT": 5.08e-06, "MEAN_MOTION_DDOT": 0}, "tle": {"line1": "1 31447U 99025BUK 25348.87613839  .00000508  00000+0  18563-3 0  9999", "line2": "2 31447  98.9919  30.1793 0230439 349.1545  10.4710 14.24037440648821"}}, "geometry": {"type": "Point", "coordinates": [47.68656656463701, -45.41970516591901]}}, {"type": "Feature", "properties": {"norad_id": 31448, "name": "FENGYUN 1C DEB", "group": "fengyun-1c-debris", "lat": 70.62869848176746, "lon": -146.86500015484282, "alt_km": 774.9449782398133, "timestamp": "2025-12-22T22:44:21.258023+00:00", "meta": {"OBJECT_NAME": "FENGYUN 1C DEB", "OBJECT_ID": "1999-025BUL", "EPOCH": "2025-12-20T18:05:54.538080", "MEAN_MOTION": 14.27837488, "ECCENTRICITY": 0.00593925, "INCLINATION": 98.4998, "RA_OF_ASC_NODE": 5.8293, "ARG_OF_PERICENTER": 180.4564, "MEAN_ANOMALY": 179.6573, "EPHEMERIS_TYPE": 0, "CLASSIFICATION_TYPE": "U", "NORAD_CAT_ID": 31448, "ELEMENT_SET_NO": 999, "REV_AT_EPOCH": 64418, "BSTAR": 0.00043686395, "MEAN_MOTION_DOT": 1.058e-05, "MEAN_MOTION_DDOT": 0}, "tle": {"line1": "1 31448U 99025BUL 25354.75410345  .00001058  00000+0  43686-3 0  9996", "line2": "2 31448  98.4998   5.8293 0059392 180.4564 179.6573 14.27837488644185"}}, "geometry": {"type": "Point", "coordinates": [-146.86500015484282, 70.62869848176746]}}, {"type": "Feature", "properties": {"norad_id": 31449, "name": "FENGYUN 1C DEB", "group": "fengyun-1c-debris", "lat": -50.060713249914144, "lon": 65.70631906186213, "alt_km": 751.0825376851162, "timestamp": "2025-12-22T22:44:21.258033+00:00", "meta": {"OBJECT_NAME": "FENGYUN 1C DEB", "OBJECT_ID": "1999-025BUM", "EPOCH": "2025-12-20T10:40:43.619520", "MEAN_MOTION": 14.33719628, "ECCENTRICITY": 0.01441603, "INCLINATION": 98.5539, "RA_OF_ASC_NODE": 52.876, "ARG_OF_PERICENTER": 245.7554, "MEAN_ANOMALY": 112.8511, "EPHEMERIS_TYPE": 0, "CLASSIFICATION_TYPE": "U", "NORAD_CAT_ID": 31449, "ELEMENT_SET_NO": 999, "REV_AT_EPOCH": 97747, "BSTAR": 0.00016710121, "MEAN_MOTION_DOT": 4.73e-06, "MEAN_MOTION_DDOT": 0}, "tle": {"line1": "1 31449U 99025BUM 25354.44494930  .00000473  00000+0  16710-3 0  9993", "line2": "2 31449  98.5539  52.8760 0144160 245.7554 112.8511 14.33719628977475"}}, "geometry": {"type": "Point", "coordinates": [65.70631906186213, -50.060713249914144]}}, {"type": "Feature", "properties": {"norad_id": 31451, "name": "FENGYUN 1C DEB", "group": "fengyun-1c-debris", "lat": 60.45765930558371, "lon": 23.020375180604063, "alt_km": 852.4991177119991, "timestamp": "2025-12-22T22:44:21.258044+00:00", "meta": {"OBJECT_NAME": "FENGYUN 1C DEB", "OBJECT_ID": "1999-025BUP", "EPOCH": "2025-12-17T01:35:52.740960", "MEAN_MOTION": 14.13630438, "ECCENTRICITY": 0.00314143, "INCLINATION": 98.7632, "RA_OF_ASC_NODE": 33.0517, "ARG_OF_PERICENTER": 198.9237, "MEAN_ANOMALY": 191.5319, "EPHEMERIS_TYPE": 0, "CLASSIFICATION_TYPE": "U", "NORAD_CAT_ID": 31451, "ELEMENT_SET_NO": 999, "REV_AT_EPOCH": 96071, "BSTAR": 0.00034950868, "MEAN_MOTION_DOT": 6.19e-06, "MEAN_MOTION_DDOT": 0}, "tle": {"line1": "1 31451U 99025BUP 25351.06658265  .00000619  00000+0  34951-3 0  9993", "line2": "2 31451  98.7632  33.0517 0031414 198.9237 191.5319 14.13630438960717"}}, "geometry": {"type": "Point", "coordinates": [23.020375180604063, 60.45765930558371]}}, {"type": "Feature", "properties": {"norad_id": 31452, "name": "FENGYUN 1C DEB", "group": "fengyun-1c-debris", "lat": 15.186181719013968, "lon": -18.781616111785763, "alt_km": 839.0090032060116, "timestamp": "2025-12-22T22:44:21.258054+00:00", "meta": {"OBJECT_NAME": "FENGYUN 1C DEB", "OBJECT_ID": "1999-025BUQ", "EPOCH": "2025-12-17T05:13:17.668704", "MEAN_MOTION": 14.15174584, "ECCENTRICITY": 0.00409624, "INCLINATION": 98.6577, "RA_OF_ASC_NODE": 338.0277, "ARG_OF_PERICENTER": 115.448, "MEAN_ANOMALY": 245.0941, "EPHEMERIS_TYPE": 0, "CLASSIFICATION_TYPE": "U", "NORAD_CAT_ID": 31452, "ELEMENT_SET_NO": 999, "REV_AT_EPOCH": 96269, "BSTAR": 0.00032143342, "MEAN_MOTION_DOT": 5.87e-06, "MEAN_MOTION_DDOT": 0}, "tle": {"line1": "1 31452U 99025BUQ 25351.21756561  .00000587  00000+0  32143-3 0  9994", "line2": "2 31452  98.6577 338.0277 0040962 115.4480 245.0941 14.15174584962690"}}, "geometry": {"type": "Point", "coordinates": [-18.781616111785763, 15.186181719013968]}}, {"type": "Feature", "properties": {"norad_id": 31455, "name": "FENGYUN 1C DEB", "group": "fengyun-1c-debris", "lat": -36.25992852937763, "lon": 158.37608781093374, "alt_km": 1013.4272860646552, "timestamp": "2025-12-22T22:44:21.258064+00:00", "meta": {"OBJECT_NAME": "FENGYUN 1C DEB", "OBJECT_ID": "1999-025BUT", "EPOCH": "2025-12-22T04:42:15.569856", "MEAN_MOTION": 14.11441759, "ECCENTRICITY": 0.02182939, "INCLINATION": 98.5748, "RA_OF_ASC_NODE": 344.0115, "ARG_OF_PERICENTER": 24.3581, "MEAN_ANOMALY": 336.7724, "EPHEMERIS_TYPE": 0, "CLASSIFICATION_TYPE": "U", "NORAD_CAT_ID": 31455, "ELEMENT_SET_NO": 999, "REV_AT_EPOCH": 96237, "BSTAR": 0.00029629403, "MEAN_MOTION_DOT": 6.29e-06, "MEAN_MOTION_DDOT": 0}, "tle": {"line1": "1 31455U 99025BUT 25356.19601354  .00000629  00000+0  29629-3 0  9990", "line2": "2 31455  98.5748 344.0115 0218293  24.3581 336.7724 14.11441759962373"}}, "geometry": {"type": "Point", "coordinates": [158.37608781093374, -36.25992852937763]}}]}